DIWATA-2B
1 43678U 18084H   23108.95540690  .00019443  00000+0  34804-3 0  9993
2 43678  51.6391 262.0713 0006099 208.3097 234.4315 15.49967480 48017